NORAD_CAT_ID,OBJECT_NAME,OBJECT_TYPE,EPOCH,MEAN_MOTION,ECCENTRICITY,INCLINATION,RA_OF_ASC_NODE,ARG_OF_PERICENTER,MEAN_ANOMALY,BSTAR,MEAN_MOTION_DOT,MEAN_MOTION_DDOT,TLE_LINE0,TLE_LINE1,TLE_LINE2,SEMIMAJOR_AXIS,PERIOD,APOGEE,PERIGEE,DECAYED
52616.0,STARLINK-4015,PAYLOAD,2022-05-20 16:00:00,15.80233451,9.58e-05,53.2173,50.8483,90.2023,310.3792,-0.0050529,-0.00875942,0.0,0 STARLINK-4015,1 52616U 22052U   22140.66667824 -.00875942  00000-0 -50529-2 0  9995,2 52616  53.2173  50.8483 0000958  90.2023 310.3792 15.80233451  1300,6707.917,91.126,330.425,329.139,0.0
52616.0,STARLINK-4015,PAYLOAD,2022-05-21 20:00:01,15.78032078,0.0001202,53.2178,45.0248,85.8488,110.9065,-0.0055845,-0.00875501,0.0,0 STARLINK-4015,1 52616U 22052U   22141.83334491 -.00875501  00000-0 -55845-2 0  9993,2 52616  53.2178  45.0248 0001202  85.8488 110.9065 15.78032078  1483,6714.154,91.253,336.826,335.212,0.0
52616.0,STARLINK-4015,PAYLOAD,2022-05-21 22:00:00,15.77875443,0.0001069,53.2176,44.6102,87.5184,222.8944,-0.0056348,-0.00876953,0.0,0 STARLINK-4015,1 52616U 22052U   22141.91667824 -.00876953  00000-0 -56348-2 0  9992,2 52616  53.2176  44.6102 0001069  87.5184 222.8944 15.77875443  1308,6714.598000000001,91.262,337.181,335.745,0.0
52616.0,STARLINK-4015,PAYLOAD,2022-05-22 14:00:01,15.76615286,0.0001064,53.2172,41.29,89.1181,48.859,-0.0059408,-0.00874022,0.0,0 STARLINK-4015,1 52616U 22052U   22142.58334491 -.00874022  00000-0 -59408-2 0  9992,2 52616  53.2172  41.2900 0001064  89.1181  48.8590 15.76615286  1302,6718.176,91.335,340.755,339.326,0.0
52616.0,STARLINK-4015,PAYLOAD,2022-05-22 20:00:01,15.76144338,0.0001099,53.2174,40.0478,76.7067,40.8259,-0.006078,-0.00875505,0.0,0 STARLINK-4015,1 52616U 22052U   22142.83334491 -.00875505  00000-0 -60780-2 0  9992,2 52616  53.2174  40.0478 0001099  76.7067  40.8259 15.76144338  1640,6719.514,91.362,342.117,340.64,0.0
52616.0,STARLINK-4015,PAYLOAD,2022-05-22 22:00:01,15.75984945,0.0001202,53.2174,39.6342,83.4979,147.1918,-0.0060958,-0.00872257,0.0,0 STARLINK-4015,1 52616U 22052U   22142.91668981 -.00872257  00000-0 -60958-2 0  9993,2 52616  53.2174  39.6342 0001202  83.4979 147.1918 15.75984945  1308,6719.967,91.371,342.64,341.024,0.0
52616.0,STARLINK-4015,PAYLOAD,2022-05-23 14:00:01,15.74727168,9.97e-05,53.2173,36.3231,107.2976,306.3533,-0.0064562,-0.00873755,0.0,0 STARLINK-4015,1 52616U 22052U   22143.58334491 -.00873755  00000-0 -64562-2 0  9992,2 52616  53.2173  36.3231 0000997 107.2976 306.3533 15.74727168  1303,6723.545,91.444,346.08,344.73900000000015,0.0
52616.0,STARLINK-4015,PAYLOAD,2022-05-23 20:00:01,15.74258409,9.84e-05,53.2177,35.0847,94.6577,296.8462,-0.0066316999999999,-0.00878751,0.0,0 STARLINK-4015,1 52616U 22052U   22143.83334491 -.00878751  00000-0 -66317-2 0  9991,2 52616  53.2177  35.0847 0000984  94.6577 296.8462 15.74258409  1804,6724.879,91.472,347.406,346.083,0.0
52616.0,STARLINK-4015,PAYLOAD,2022-05-23 22:00:01,15.74095672,0.000114,53.2174,34.6722,85.8795,58.2148,-0.006603,-0.00869768,0.0,0 STARLINK-4015,1 52616U 22052U   22143.91668981 -.00869768  00000-0 -66030-2 0  9994,2 52616  53.2174  34.6722 0001140  85.8795  58.2148 15.74095672  1304,6725.343000000003,91.481,347.974,346.441,0.0
52616.0,STARLINK-4015,PAYLOAD,2022-05-24 04:00:00,15.73453343,0.0001055,53.2173,33.4345,116.7639,4.5808,-0.0026184,-0.00356784,0.0,0 STARLINK-4015,1 52616U 22052U   22144.16667824 -.00356784  00000-0 -26184-2 0  9992,2 52616  53.2173  33.4345 0001055 116.7639   4.5808 15.73453343  1856,6727.1730000000025,91.518,349.74800000000016,348.32800000000015,0.0
52616.0,STARLINK-4015,PAYLOAD,2022-05-24 12:00:00,15.73204574,0.0001134,53.2174,31.7825,106.8228,103.5949,2.3847e-06,-2.85e-06,0.0,0 STARLINK-4015,1 52616U 22052U   22144.50001157 -.00000285  00000-0  23847-5 0  9998,2 52616  53.2174  31.7825 0001134 106.8228 103.5949 15.73204574  1905,6727.882,91.533,350.51,348.9840000000001,0.0
52616.0,STARLINK-4015,PAYLOAD,2022-05-24 14:00:01,15.73203849,0.0001172,53.2173,31.3699,110.6281,212.0238,3.7786e-06,-8.9e-07,0.0,0 STARLINK-4015,1 52616U 22052U   22144.58334491 -.00000089  00000-0  37786-5 0  9995,2 52616  53.2173  31.3699 0001172 110.6281 212.0238 15.73203849  1308,6727.884,91.533,350.538,348.961,0.0
52616.0,STARLINK-4015,PAYLOAD,2022-05-24 20:00:01,15.73264654,0.0001078,53.2148,30.138,112.4927,187.0853,-0.00040839,-0.0005769999999999,0.0,0 STARLINK-4015,1 52616U 22052U   22144.83335648 -.00057700  00000-0 -40839-3 0  9992,2 52616  53.2148  30.1380 0001078 112.4927 187.0853 15.73264654  1952,6727.7109999999975,91.529,350.301,348.851,0.0
52616.0,STARLINK-4015,PAYLOAD,2022-05-24 22:00:00,15.73271107,0.0001056,53.2147,29.7263,106.7864,304.9698,-0.00062737,-0.00088015,0.0,0 STARLINK-4015,1 52616U 22052U   22144.91667824 -.00088015  00000-0 -62737-3 0  9999,2 52616  53.2147  29.7263 0001056 106.7864 304.9698 15.73271107  1304,6727.691999999999,91.529,350.26800000000014,348.847,0.0
52616.0,STARLINK-4015,PAYLOAD,2022-05-25 14:00:01,15.73121641,0.0001174,53.215,26.4251,113.7244,115.9437,0.00046111,0.00064373,0.0,0 STARLINK-4015,1 52616U 22052U   22145.58334491  .00064373  00000-0  46111-3 0  9991,2 52616  53.2150  26.4251 0001174 113.7244 115.9437 15.73121641  1308,6728.119000000002,91.538,350.773,349.194,0.0
52616.0,STARLINK-4015,PAYLOAD,2022-05-25 20:00:01,15.73164806,0.000113,53.2153,25.1895,108.6083,97.6984,0.00018926,0.00025984,0.0,0 STARLINK-4015,1 52616U 22052U   22145.83334491  .00025984  00000-0  18926-3 0  9997,2 52616  53.2153  25.1895 0001130 108.6083  97.6984 15.73164806  2110,6727.996,91.535,350.621,349.1,0.0
52616.0,STARLINK-4015,PAYLOAD,2022-05-25 20:39:05,15.73230993,0.0001314,53.2156,25.0542,141.8996,218.2118,0.00032647,0.00045507,0.0,0 STARLINK-4015,1 52616U 22052U   22145.86048050  .00045507  00000-0  32647-3 0  9992,2 52616  53.2156  25.0542 0001314 141.8996 218.2118 15.73230993  1757,6727.807,91.531,350.556,348.788,0.0
52616.0,STARLINK-4015,PAYLOAD,2022-05-26 04:00:00,15.73230705,0.0001006,53.2147,23.541,100.3674,194.8802,6.9402e-05,9.144e-05,0.0,0 STARLINK-4015,1 52616U 22052U   22146.16667824  .00009144  00000-0  69402-4 0  9999,2 52616  53.2147  23.5410 0001006 100.3674 194.8802 15.73230705  2161,6727.808000000001,91.531,350.349,348.996,0.0
52616.0,STARLINK-4015,PAYLOAD,2022-05-26 08:50:56,15.73231932,0.0001059,53.2158,22.539,113.5323,246.5808,0.00040603,0.00056828,0.0,0 STARLINK-4015,1 52616U 22052U   22146.36870523  .00056828  00000-0  40603-3 0  9995,2 52616  53.2158  22.5390 0001059 113.5323 246.5808 15.73231932  1831,6727.804,91.531,350.38199999999995,348.957,0.0
52616.0,STARLINK-4015,PAYLOAD,2022-05-26 12:00:00,15.73193983,0.0001264999999999,53.2147,21.8893,112.2476,271.9691,-4.1069e-06,-1.196e-05,0.0,0 STARLINK-4015,1 52616U 22052U   22146.50001157 -.00001196  00000-0 -41069-5 0  9999,2 52616  53.2147  21.8893 0001265 112.2476 271.9691 15.73193983  2211,6727.9119999999975,91.534,350.62800000000016,348.926,0.0
52616.0,STARLINK-4015,PAYLOAD,2022-05-26 20:00:01,15.73203793,0.0001336,53.2149,20.2412,108.4007,4.7688,4.2277e-05,5.318e-05,0.0,0 STARLINK-4015,1 52616U 22052U   22146.83334491  .00005318  00000-0  42277-4 0  9994,2 52616  53.2149  20.2412 0001336 108.4007   4.7688 15.73203793  2274,6727.884,91.533,350.648,348.851,0.0
52616.0,STARLINK-4015,PAYLOAD,2022-05-26 22:34:14,15.73249045,0.0001584,53.2158,19.7091,106.6999,253.4195,0.00032261,0.00044994,0.0,0 STARLINK-4015,1 52616U 22052U   22146.94045084  .00044994  00000-0  32261-3 0  9997,2 52616  53.2158  19.7091 0001584 106.6999 253.4195 15.73249045  1922,6727.755,91.53,350.686,348.555,0.0
52616.0,STARLINK-4015,PAYLOAD,2022-05-27 12:00:00,15.73184145,0.0001186,53.2151,16.9408,114.7128,176.3224,1.9681e-06,-3.44e-06,0.0,0 STARLINK-4015,1 52616U 22052U   22147.50001157 -.00000344  00000-0  19681-5 0  9998,2 52616  53.2151  16.9408 0001186 114.7128 176.3224 15.73184145  2373,6727.94,91.534,350.603,349.00699999999995,0.0
52616.0,STARLINK-4015,PAYLOAD,2022-05-27 14:00:01,15.73187597,0.0001272,53.2152,16.5281,114.1056,289.1563,-5.8912e-05,-8.874e-05,0.0,0 STARLINK-4015,1 52616U 22052U   22147.58334491 -.00008874  00000-0 -58912-4 0  9992,2 52616  53.2152  16.5281 0001272 114.1056 289.1563 15.73187597  1304,6727.931,91.534,350.651,348.94,0.0
52616.0,STARLINK-4015,PAYLOAD,2022-05-27 21:26:26,15.73232506,0.0001261,53.2151,14.994000000000002,127.8392,232.2743,0.00019152,0.0002638,0.0,0 STARLINK-4015,1 52616U 22052U   22147.89336647  .00026380  00000-0  19152-3 0  9993,2 52616  53.2151  14.9940 0001261 127.8392 232.2743 15.73232506  2434,6727.802,91.531,350.516,348.819,0.0
52616.0,STARLINK-4015,PAYLOAD,2022-05-27 22:00:01,15.73179115,0.0001327,53.2151,14.8806,102.1101,30.1352,0.00028126,0.00039001,0.0,0 STARLINK-4015,1 52616U 22052U   22147.91668981  .00039001  00000-0  28126-3 0  9990,2 52616  53.2151  14.8806 0001327 102.1101  30.1352 15.73179115  1303,6727.955,91.534,350.713,348.927,0.0
52616.0,STARLINK-4015,PAYLOAD,2022-05-28 04:00:00,15.73431151,0.0001236,53.2159,13.6419,99.3375,9.5293,-0.0045082,-0.00596293,0.0,0 STARLINK-4015,1 52616U 22052U   22148.16667824 -.00596293  00000-0 -45082-2 0  9995,2 52616  53.2159  13.6419 0001236  99.3375   9.5293 15.73431151  2482,6727.236,91.52,349.93300000000005,348.27,0.0
52616.0,STARLINK-4015,PAYLOAD,2022-05-28 12:00:00,15.73208503,0.0001087,53.2146,11.992,117.7576,80.0976,1.3159999999999998e-08,-6.18e-06,0.0,0 STARLINK-4015,1 52616U 22052U   22148.50001157 -.00000618  00000-0  13160-7 0  9991,2 52616  53.2146  11.9920 0001087 117.7576  80.0976 15.73208503  2539,6727.871,91.533,350.467,349.005,0.0
52616.0,STARLINK-4015,PAYLOAD,2022-05-28 14:00:01,15.73216266,0.000116,53.2148,11.5796,117.2753,192.8117,-0.00010442,-0.00015258,0.0,0 STARLINK-4015,1 52616U 22052U   22148.58334491 -.00015258  00000-0 -10442-3 0  9992,2 52616  53.2148  11.5796 0001160 117.2753 192.8117 15.73216266  1300,6727.849,91.532,350.494,348.93300000000005,0.0
